0 COSMOS 1818 COOLANT
1 36947U 87011AB  13281.59076508  .00000412  00000-0  18788-3 0  1760
2 36947 065.0107 260.3717 0020942 258.3064 217.9208 14.32625903215665
0 COSMOS 1818 COOLANT
1 36947U 87011AB  13286.32958600  .00000430  00000-0  19429-3 0  1783
2 36947 065.0111 247.0760 0020734 258.0032 176.8092 14.32633077216342
0 COSMOS 1818 COOLANT
1 36947U 87011AB  13289.26059177  .00000550  00000-0  23823-3 0  1797
2 36947 065.0115 238.8528 0020615 257.7665 172.5977 14.32637988216768
0 COSMOS 1818 COOLANT
1 36947U 87011AB  13291.28603160  .00000618  00000-0  26324-3 0  1805
2 36947 065.0115 233.1703 0020519 257.6339 178.1997 14.32640422217055
0 COSMOS 1818 COOLANT
1 36947U 87011AB  13293.45647053  .00000636  00000-0  26974-3 0  1817
2 36947 065.0113 227.0807 0020418 257.4959 211.6047 14.32644084217365
